start=new Date('2021-09-06T00:00:00.000Z').valueOf();
sats=[{"PERIOD":"91.536","EPHEMERIS_TYPE":"0","EPOCH":"2021-09-05T18:00:00.999648","RCS_SIZE":"LARGE","TLE_LINE1":"1 47663U 21012AV  21248.75001157  .00073047  00000-0  52101-3 0  9998","GP_ID":"184166096","TLE_LINE2":"2 47663  53.0428 179.4150 0003836   4.2551 197.2480 15.73160092  3686","NORAD_CAT_ID":"47663","DECAY_DATE":null,"OBJECT_ID":"2021-012AV","MEAN_ANOMALY":"197.2480","TIME_SYSTEM":"UTC","MEAN_MOTION_DOT":"0.00073047","CLASSIFICATION_TYPE":"U","ECCENTRICITY":"0.00038360","FILE":"3109348","ARG_OF_PERICENTER":"4.2551","COUNTRY_CODE":"US","APOAPSIS":"352.455","REF_FRAME":"TEME","LAUNCH_DATE":"2021-02-16","RA_OF_ASC_NODE":"179.4150","MEAN_MOTION":"15.73160092","MEAN_ELEMENT_THEORY":"SGP4","PERIAPSIS":"347.293","BSTAR":"0.00052101000000","INCLINATION":"53.0428","MEAN_MOTION_DDOT":"0.0000000000000","OBJECT_TYPE":"PAYLOAD","CENTER_NAME":"EARTH","OBJECT_NAME":"STARLINK-2053","REV_AT_EPOCH":"368","SEMIMAJOR_AXIS":"6728.009","ELEMENT_SET_NO":"999","SITE":"AFETR"},{"EPHEMERIS_TYPE":"0","PERIOD":"95.592","RCS_SIZE":"LARGE","EPOCH":"2021-09-05T18:00:00.999648","TLE_LINE1":"1 47664U 21012AW  21248.75001157  .00004586  00000-0  32660-3 0  9999","DECAY_DATE":null,"TLE_LINE2":"2 47664  53.0534 240.5324 0000767  36.5289 192.7696 15.06396262  3588","GP_ID":"184166343","NORAD_CAT_ID":"47664","MEAN_ANOMALY":"192.7696","OBJECT_ID":"2021-012AW","MEAN_MOTION_DOT":"0.00004586","TIME_SYSTEM":"UTC","ARG_OF_PERICENTER":"36.5289","FILE":"3109348","ECCENTRICITY":"0.00007670","CLASSIFICATION_TYPE":"U","APOAPSIS":"547.756","COUNTRY_CODE":"US","LAUNCH_DATE":"2021-02-16","REF_FRAME":"TEME","MEAN_MOTION":"15.06396262","RA_OF_ASC_NODE":"240.5324","MEAN_ELEMENT_THEORY":"SGP4","BSTAR":"0.00032660000000","PERIAPSIS":"546.694","OBJECT_TYPE":"PAYLOAD","MEAN_MOTION_DDOT":"0.0000000000000","INCLINATION":"53.0534","CENTER_NAME":"EARTH","SEMIMAJOR_AXIS":"6925.360","ELEMENT_SET_NO":"999","REV_AT_EPOCH":"358","OBJECT_NAME":"STARLINK-2054","SITE":"AFETR"},{"OBJECT_TYPE":"PAYLOAD","MEAN_MOTION_DDOT":"0.0000000000000","INCLINATION":"53.0474","CENTER_NAME":"EARTH","SEMIMAJOR_AXIS":"6925.412","ELEMENT_SET_NO":"999","REV_AT_EPOCH":"360","OBJECT_NAME":"STARLINK-2056","SITE":"AFETR","LAUNCH_DATE":"2021-02-16","REF_FRAME":"TEME","MEAN_MOTION":"15.06379396","RA_OF_ASC_NODE":"235.5477","MEAN_ELEMENT_THEORY":"SGP4","BSTAR":"0.00083475000000","PERIAPSIS":"542.678","MEAN_ANOMALY":"204.9589","OBJECT_ID":"2021-012AX","MEAN_MOTION_DOT":"0.00012171","TIME_SYSTEM":"UTC","ARG_OF_PERICENTER":"157.0024","FILE":"3109348","ECCENTRICITY":"0.00066410","CLASSIFICATION_TYPE":"U","APOAPSIS":"551.876","COUNTRY_CODE":"US","EPHEMERIS_TYPE":"0","PERIOD":"95.593","RCS_SIZE":"LARGE","EPOCH":"2021-09-05T18:00:00.999648","TLE_LINE1":"1 47665U 21012AX  21248.75001157  .00012171  00000-0  83475-3 0  9999","DECAY_DATE":null,"GP_ID":"184165595","TLE_LINE2":"2 47665  53.0474 235.5477 0006641 157.0024 204.9589 15.06379396  3607","NORAD_CAT_ID":"47665"},{"RA_OF_ASC_NODE":"235.5185","MEAN_MOTION":"15.06401560","REF_FRAME":"TEME","LAUNCH_DATE":"2021-02-16","PERIAPSIS":"547.048","BSTAR":"0.00085606000000","MEAN_ELEMENT_THEORY":"SGP4","CENTER_NAME":"EARTH","INCLINATION":"53.0532","OBJECT_TYPE":"PAYLOAD","MEAN_MOTION_DDOT":"0.0000000000000","SITE":"AFETR","REV_AT_EPOCH":"359","OBJECT_NAME":"STARLINK-2057","ELEMENT_SET_NO":"999","SEMIMAJOR_AXIS":"6925.344","RCS_SIZE":"LARGE","EPOCH":"2021-09-05T18:00:00.999648","PERIOD":"95.592","EPHEMERIS_TYPE":"0","TLE_LINE2":"2 47666  53.0532 235.5185 0000232 341.7228 200.2987 15.06401560  3595","NORAD_CAT_ID":"47666","GP_ID":"184165845","DECAY_DATE":null,"TLE_LINE1":"1 47666U 21012AY  21248.75001157  .00012493  00000-0  85606-3 0  9995","MEAN_MOTION_DOT":"0.00012493","TIME_SYSTEM":"UTC","OBJECT_ID":"2021-012AY","MEAN_ANOMALY":"200.2987","COUNTRY_CODE":"US","APOAPSIS":"547.369","ECCENTRICITY":"0.00002320","CLASSIFICATION_TYPE":"U","ARG_OF_PERICENTER":"341.7228","FILE":"3109348"},{"NORAD_CAT_ID":"47667","TLE_LINE2":"2 47667  53.0543 260.5268 0000825  75.0503 344.3418 15.06396378  3598","GP_ID":"184166597","DECAY_DATE":null,"TLE_LINE1":"1 47667U 21012AZ  21248.75001157 -.00023819  00000-0 -15857-2 0  9992","RCS_SIZE":"LARGE","EPOCH":"2021-09-05T18:00:00.999648","PERIOD":"95.592","EPHEMERIS_TYPE":"0","COUNTRY_CODE":"US","APOAPSIS":"547.796","ECCENTRICITY":"0.00008250","CLASSIFICATION_TYPE":"U","ARG_OF_PERICENTER":"75.0503","FILE":"3109348","MEAN_MOTION_DOT":"-0.00023819","TIME_SYSTEM":"UTC","OBJECT_ID":"2021-012AZ","MEAN_ANOMALY":"344.3418","PERIAPSIS":"546.653","BSTAR":"-0.00158570000000","MEAN_ELEMENT_THEORY":"SGP4","RA_OF_ASC_NODE":"260.5268","MEAN_MOTION":"15.06396378","REF_FRAME":"TEME","LAUNCH_DATE":"2021-02-16","SITE":"AFETR","REV_AT_EPOCH":"359","OBJECT_NAME":"STARLINK-2058","ELEMENT_SET_NO":"999","SEMIMAJOR_AXIS":"6925.360","CENTER_NAME":"EARTH","INCLINATION":"53.0543","OBJECT_TYPE":"PAYLOAD","MEAN_MOTION_DDOT":"0.0000000000000"},{"PERIOD":"95.593","EPHEMERIS_TYPE":"0","RCS_SIZE":"LARGE","EPOCH":"2021-09-05T18:00:00.999648","TLE_LINE1":"1 47668U 21012BA  21248.75001157  .00005100  00000-0  36114-3 0  9994","TLE_LINE2":"2 47668  53.0530 240.5402 0001148  48.5444 140.7598 15.06384858  3598","NORAD_CAT_ID":"47668","GP_ID":"184166844","DECAY_DATE":null,"OBJECT_ID":"2021-012BA","MEAN_ANOMALY":"140.7598","MEAN_MOTION_DOT":"0.00005100","TIME_SYSTEM":"UTC","ECCENTRICITY":"0.00011480","CLASSIFICATION_TYPE":"U","ARG_OF_PERICENTER":"48.5444","FILE":"3109348","COUNTRY_CODE":"US","APOAPSIS":"548.055","REF_FRAME":"TEME","LAUNCH_DATE":"2021-02-16","MEAN_MOTION":"15.06384858","RA_OF_ASC_NODE":"240.5402","MEAN_ELEMENT_THEORY":"SGP4","PERIAPSIS":"546.465","BSTAR":"0.00036114000000","INCLINATION":"53.0530","OBJECT_TYPE":"PAYLOAD","MEAN_MOTION_DDOT":"0.0000000000000","CENTER_NAME":"EARTH","REV_AT_EPOCH":"359","OBJECT_NAME":"STARLINK-2059","ELEMENT_SET_NO":"999","SEMIMAJOR_AXIS":"6925.395","SITE":"AFETR"},{"RA_OF_ASC_NODE":"179.4111","MEAN_MOTION":"15.73171811","REF_FRAME":"TEME","LAUNCH_DATE":"2021-02-16","PERIAPSIS":"347.300","BSTAR":"0.00054595000000","MEAN_ELEMENT_THEORY":"SGP4","CENTER_NAME":"EARTH","INCLINATION":"53.0427","MEAN_MOTION_DDOT":"0.0000000000000","OBJECT_TYPE":"PAYLOAD","SITE":"AFETR","OBJECT_NAME":"STARLINK-2060","REV_AT_EPOCH":"369","ELEMENT_SET_NO":"999","SEMIMAJOR_AXIS":"6727.976","EPOCH":"2021-09-05T18:00:00.999648","RCS_SIZE":"MEDIUM","PERIOD":"91.535","EPHEMERIS_TYPE":"0","NORAD_CAT_ID":"47669","TLE_LINE2":"2 47669  53.0427 179.4111 0003776   6.4587 195.6787 15.73171811  3698","GP_ID":"184165095","DECAY_DATE":null,"TLE_LINE1":"1 47669U 21012BB  21248.75001157  .00076644  00000-0  54595-3 0  9999","TIME_SYSTEM":"UTC","MEAN_MOTION_DOT":"0.00076644","OBJECT_ID":"2021-012BB","MEAN_ANOMALY":"195.6787","COUNTRY_CODE":"US","APOAPSIS":"352.381","CLASSIFICATION_TYPE":"U","ECCENTRICITY":"0.00037760","FILE":"3109348","ARG_OF_PERICENTER":"6.4587"},{"TLE_LINE2":"2 47670  53.0506 240.5260 0007529 187.6541 281.7866 15.06385461  3593","GP_ID":"184165345","NORAD_CAT_ID":"47670","DECAY_DATE":null,"TLE_LINE1":"1 47670U 21012BC  21248.75001157 -.00005345  00000-0 -33994-3 0  9993","RCS_SIZE":"LARGE","EPOCH":"2021-09-05T18:00:00.999648","PERIOD":"95.593","EPHEMERIS_TYPE":"0","COUNTRY_CODE":"US","APOAPSIS":"552.472","ECCENTRICITY":"0.00075290","CLASSIFICATION_TYPE":"U","ARG_OF_PERICENTER":"187.6541","FILE":"3109348","MEAN_MOTION_DOT":"-0.00005345","TIME_SYSTEM":"UTC","OBJECT_ID":"2021-012BC","MEAN_ANOMALY":"281.7866","PERIAPSIS":"542.044","BSTAR":"-0.00033994000000","MEAN_ELEMENT_THEORY":"SGP4","MEAN_MOTION":"15.06385461","RA_OF_ASC_NODE":"240.5260","REF_FRAME":"TEME","LAUNCH_DATE":"2021-02-16","SITE":"AFETR","REV_AT_EPOCH":"359","OBJECT_NAME":"STARLINK-2062","ELEMENT_SET_NO":"999","SEMIMAJOR_AXIS":"6925.393","CENTER_NAME":"EARTH","INCLINATION":"53.0506","OBJECT_TYPE":"PAYLOAD","MEAN_MOTION_DDOT":"0.0000000000000"},{"OBJECT_ID":"2021-012BD","MEAN_ANOMALY":"157.3571","TIME_SYSTEM":"UTC","MEAN_MOTION_DOT":"0.00004903","CLASSIFICATION_TYPE":"U","ECCENTRICITY":"0.00009750","FILE":"3109348","ARG_OF_PERICENTER":"51.9883","COUNTRY_CODE":"US","APOAPSIS":"547.914","PERIOD":"95.593","EPHEMERIS_TYPE":"0","EPOCH":"2021-09-05T18:00:00.999648","RCS_SIZE":"LARGE","TLE_LINE1":"1 47671U 21012BD  21248.75001157  .00004903  00000-0  34785-3 0  9990","TLE_LINE2":"2 47671  53.0522 240.5350 0000975  51.9883 157.3571 15.06391917  3596","NORAD_CAT_ID":"47671","GP_ID":"184166097","DECAY_DATE":null,"INCLINATION":"53.0522","MEAN_MOTION_DDOT":"0.0000000000000","OBJECT_TYPE":"PAYLOAD","CENTER_NAME":"EARTH","OBJECT_NAME":"STARLINK-2064","REV_AT_EPOCH":"359","ELEMENT_SET_NO":"999","SEMIMAJOR_AXIS":"6925.373","SITE":"AFETR","REF_FRAME":"TEME","LAUNCH_DATE":"2021-02-16","RA_OF_ASC_NODE":"240.5350","MEAN_MOTION":"15.06391917","MEAN_ELEMENT_THEORY":"SGP4","PERIAPSIS":"546.563","BSTAR":"0.00034785000000"},{"RA_OF_ASC_NODE":"230.5367","MEAN_MOTION":"15.06392430","LAUNCH_DATE":"2021-02-16","REF_FRAME":"TEME","BSTAR":"0.00147790000000","PERIAPSIS":"546.704","MEAN_ELEMENT_THEORY":"SGP4","CENTER_NAME":"EARTH","OBJECT_TYPE":"PAYLOAD","MEAN_MOTION_DDOT":"0.0000000000000","INCLINATION":"53.0502","SITE":"AFETR","ELEMENT_SET_NO":"999","SEMIMAJOR_AXIS":"6925.372","REV_AT_EPOCH":"358","OBJECT_NAME":"STARLINK-2065","RCS_SIZE":"LARGE","EPOCH":"2021-09-05T18:00:00.999648","EPHEMERIS_TYPE":"0","PERIOD":"95.593","DECAY_DATE":null,"GP_ID":"184166344","TLE_LINE2":"2 47672  53.0502 230.5367 0000769  28.5300 295.8125 15.06392430  3580","NORAD_CAT_ID":"47672","TLE_LINE1":"1 47672U 21012BE  21248.75001157  .00021796  00000-0  14779-2 0  9990","MEAN_MOTION_DOT":"0.00021796","TIME_SYSTEM":"UTC","MEAN_ANOMALY":"295.8125","OBJECT_ID":"2021-012BE","APOAPSIS":"547.769","COUNTRY_CODE":"US","ARG_OF_PERICENTER":"28.5300","FILE":"3109348","ECCENTRICITY":"0.00007690","CLASSIFICATION_TYPE":"U"}];
